{"fetched_at":"2026-07-23T07:05:46.622Z","source":"https://celestrak.org/NORAD/elements/gp.php?NAME=ICEYE&FORMAT=JSON","constellation":"iceye","records":[{"OBJECT_NAME":"ICEYE-X53","OBJECT_ID":"2025-135BJ","EPOCH":"2026-07-22T23:00:25.752096","CLASSIFICATION_TYPE":"U","MEAN_MOTION":15.00925377,"ECCENTRICITY":0.0002282,"INCLINATION":97.7348,"RA_OF_ASC_NODE":320.581,"ARG_OF_PERICENTER":163.4274,"MEAN_ANOMALY":196.7025,"EPHEMERIS_TYPE":0,"NORAD_CAT_ID":64584,"ELEMENT_SET_NO":999,"REV_AT_EPOCH":5944,"BSTAR":0.0003143119,"MEAN_MOTION_DOT":0.00003944,"MEAN_MOTION_DDOT":0},{"OBJECT_NAME":"ICEYE-X65","OBJECT_ID":"2025-248H","EPOCH":"2026-07-22T14:14:02.648544","CLASSIFICATION_TYPE":"U","MEAN_MOTION":15.07962524,"ECCENTRICITY":0.00061702,"INCLINATION":45.4055,"RA_OF_ASC_NODE":307.9954,"ARG_OF_PERICENTER":236.0483,"MEAN_ANOMALY":123.9813,"EPHEMERIS_TYPE":0,"NORAD_CAT_ID":66300,"ELEMENT_SET_NO":999,"REV_AT_EPOCH":4086,"BSTAR":0.00019646342,"MEAN_MOTION_DOT":0.00002819,"MEAN_MOTION_DDOT":0},{"OBJECT_NAME":"ICEYE-X66","OBJECT_ID":"2025-248J","EPOCH":"2026-07-22T07:40:36.939936","CLASSIFICATION_TYPE":"U","MEAN_MOTION":15.09212947,"ECCENTRICITY":0.0005771,"INCLINATION":45.4022,"RA_OF_ASC_NODE":308.4383,"ARG_OF_PERICENTER":230.7144,"MEAN_ANOMALY":129.3227,"EPHEMERIS_TYPE":0,"NORAD_CAT_ID":66301,"ELEMENT_SET_NO":999,"REV_AT_EPOCH":4081,"BSTAR":0.00020765796,"MEAN_MOTION_DOT":0.00003104,"MEAN_MOTION_DDOT":0},{"OBJECT_NAME":"ICEYE-X67","OBJECT_ID":"2025-248K","EPOCH":"2026-07-22T08:16:17.302944","CLASSIFICATION_TYPE":"U","MEAN_MOTION":15.09193272,"ECCENTRICITY":0.00072881,"INCLINATION":45.4058,"RA_OF_ASC_NODE":307.89,"ARG_OF_PERICENTER":231.8869,"MEAN_ANOMALY":128.1356,"EPHEMERIS_TYPE":0,"NORAD_CAT_ID":66302,"ELEMENT_SET_NO":999,"REV_AT_EPOCH":4083,"BSTAR":0.00020664765,"MEAN_MOTION_DOT":0.00003086,"MEAN_MOTION_DDOT":0},{"OBJECT_NAME":"ICEYE-X58","OBJECT_ID":"2025-276CP","EPOCH":"2026-07-22T15:58:33.834432","CLASSIFICATION_TYPE":"U","MEAN_MOTION":15.17335291,"ECCENTRICITY":0.00028876,"INCLINATION":97.419,"RA_OF_ASC_NODE":276.3905,"ARG_OF_PERICENTER":183.0219,"MEAN_ANOMALY":177.0997,"EPHEMERIS_TYPE":0,"NORAD_CAT_ID":66751,"ELEMENT_SET_NO":999,"REV_AT_EPOCH":3579,"BSTAR":0.00011310622,"MEAN_MOTION_DOT":0.0000219,"MEAN_MOTION_DDOT":0},{"OBJECT_NAME":"ICEYE-X59","OBJECT_ID":"2025-276CQ","EPOCH":"2026-07-22T03:31:05.504736","CLASSIFICATION_TYPE":"U","MEAN_MOTION":15.00795767,"ECCENTRICITY":0.00014182,"INCLINATION":97.4403,"RA_OF_ASC_NODE":272.9508,"ARG_OF_PERICENTER":128.7925,"MEAN_ANOMALY":231.3427,"EPHEMERIS_TYPE":0,"NORAD_CAT_ID":66752,"ELEMENT_SET_NO":999,"REV_AT_EPOCH":3551,"BSTAR":0.00032545981,"MEAN_MOTION_DOT":0.00004076,"MEAN_MOTION_DDOT":0},{"OBJECT_NAME":"ICEYE-X60","OBJECT_ID":"2025-276CR","EPOCH":"2026-07-21T10:12:56.896128","CLASSIFICATION_TYPE":"U","MEAN_MOTION":15.10963354,"ECCENTRICITY":0.00021257,"INCLINATION":97.4208,"RA_OF_ASC_NODE":274.0787,"ARG_OF_PERICENTER":166.7579,"MEAN_ANOMALY":193.3708,"EPHEMERIS_TYPE":0,"NORAD_CAT_ID":66753,"ELEMENT_SET_NO":999,"REV_AT_EPOCH":3553,"BSTAR":0.00024564021,"MEAN_MOTION_DOT":0.00004036,"MEAN_MOTION_DDOT":0},{"OBJECT_NAME":"ICEYE-X61","OBJECT_ID":"2025-276CS","EPOCH":"2026-07-22T03:36:27.760320","CLASSIFICATION_TYPE":"U","MEAN_MOTION":15.18637165,"ECCENTRICITY":0.00027563,"INCLINATION":97.4186,"RA_OF_ASC_NODE":275.9885,"ARG_OF_PERICENTER":186.6183,"MEAN_ANOMALY":173.5015,"EPHEMERIS_TYPE":0,"NORAD_CAT_ID":66754,"ELEMENT_SET_NO":999,"REV_AT_EPOCH":3572,"BSTAR":0.00011701636,"MEAN_MOTION_DOT":0.00002356,"MEAN_MOTION_DDOT":0},{"OBJECT_NAME":"ICEYE-X62","OBJECT_ID":"2025-276CT","EPOCH":"2026-07-22T21:52:28.358112","CLASSIFICATION_TYPE":"U","MEAN_MOTION":15.10205007,"ECCENTRICITY":0.00013845,"INCLINATION":97.4178,"RA_OF_ASC_NODE":275.0006,"ARG_OF_PERICENTER":195.1986,"MEAN_ANOMALY":164.9202,"EPHEMERIS_TYPE":0,"NORAD_CAT_ID":66755,"ELEMENT_SET_NO":999,"REV_AT_EPOCH":3572,"BSTAR":0.00034423145,"MEAN_MOTION_DOT":0.00005564,"MEAN_MOTION_DDOT":0},{"OBJECT_NAME":"ICEYE-X63","OBJECT_ID":"2026-004K","EPOCH":"2026-07-22T17:08:12.369984","CLASSIFICATION_TYPE":"U","MEAN_MOTION":14.88358842,"ECCENTRICITY":0.00049164,"INCLINATION":97.8019,"RA_OF_ASC_NODE":201.8013,"ARG_OF_PERICENTER":32.2134,"MEAN_ANOMALY":327.9382,"EPHEMERIS_TYPE":0,"NORAD_CAT_ID":67372,"ELEMENT_SET_NO":999,"REV_AT_EPOCH":2858,"BSTAR":0.000082400926,"MEAN_MOTION_DOT":0.00000708,"MEAN_MOTION_DDOT":0},{"OBJECT_NAME":"ICEYE-X64","OBJECT_ID":"2026-004L","EPOCH":"2026-07-22T16:44:08.054880","CLASSIFICATION_TYPE":"U","MEAN_MOTION":14.87999271,"ECCENTRICITY":0.00067327,"INCLINATION":97.8032,"RA_OF_ASC_NODE":201.701,"ARG_OF_PERICENTER":33.5498,"MEAN_ANOMALY":326.6144,"EPHEMERIS_TYPE":0,"NORAD_CAT_ID":67373,"ELEMENT_SET_NO":999,"REV_AT_EPOCH":2857,"BSTAR":0.00010379219,"MEAN_MOTION_DOT":0.00000898,"MEAN_MOTION_DDOT":0},{"OBJECT_NAME":"ICEYE-X71","OBJECT_ID":"2026-067CG","EPOCH":"2026-07-22T20:00:01.999872","CLASSIFICATION_TYPE":"U","MEAN_MOTION":14.92350821,"ECCENTRICITY":0.0000744,"INCLINATION":97.7617,"RA_OF_ASC_NODE":161.5235,"ARG_OF_PERICENTER":313.2033,"MEAN_ANOMALY":145.3512,"EPHEMERIS_TYPE":0,"NORAD_CAT_ID":68494,"ELEMENT_SET_NO":999,"REV_AT_EPOCH":581,"BSTAR":0.0072469325,"MEAN_MOTION_DOT":0.00074818,"MEAN_MOTION_DDOT":0},{"OBJECT_NAME":"ICEYE-X73","OBJECT_ID":"2026-067CJ","EPOCH":"2026-07-22T20:07:23.982528","CLASSIFICATION_TYPE":"U","MEAN_MOTION":14.92374863,"ECCENTRICITY":0.00020821,"INCLINATION":97.7627,"RA_OF_ASC_NODE":161.6233,"ARG_OF_PERICENTER":136.7426,"MEAN_ANOMALY":223.3957,"EPHEMERIS_TYPE":0,"NORAD_CAT_ID":68496,"ELEMENT_SET_NO":999,"REV_AT_EPOCH":1704,"BSTAR":0.00023051287,"MEAN_MOTION_DOT":0.00002303,"MEAN_MOTION_DDOT":0},{"OBJECT_NAME":"ICEYE-X75","OBJECT_ID":"2026-067CK","EPOCH":"2026-07-22T20:15:11.048832","CLASSIFICATION_TYPE":"U","MEAN_MOTION":14.92186768,"ECCENTRICITY":0.00020179,"INCLINATION":97.761,"RA_OF_ASC_NODE":161.5922,"ARG_OF_PERICENTER":133.2738,"MEAN_ANOMALY":226.8649,"EPHEMERIS_TYPE":0,"NORAD_CAT_ID":68497,"ELEMENT_SET_NO":999,"REV_AT_EPOCH":1704,"BSTAR":0.00011233443,"MEAN_MOTION_DOT":0.00001088,"MEAN_MOTION_DDOT":0},{"OBJECT_NAME":"ICEYE-X74","OBJECT_ID":"2026-067CN","EPOCH":"2026-07-22T21:06:55.882080","CLASSIFICATION_TYPE":"U","MEAN_MOTION":14.91818477,"ECCENTRICITY":0.00003224,"INCLINATION":97.7637,"RA_OF_ASC_NODE":161.583,"ARG_OF_PERICENTER":248.0076,"MEAN_ANOMALY":112.1108,"EPHEMERIS_TYPE":0,"NORAD_CAT_ID":68500,"ELEMENT_SET_NO":999,"REV_AT_EPOCH":1704,"BSTAR":0.00020436732,"MEAN_MOTION_DOT":0.00002006,"MEAN_MOTION_DDOT":0},{"OBJECT_NAME":"ICEYE-X76","OBJECT_ID":"2026-067CQ","EPOCH":"2026-07-22T14:35:00.883104","CLASSIFICATION_TYPE":"U","MEAN_MOTION":14.91760465,"ECCENTRICITY":0.00005459,"INCLINATION":97.7644,"RA_OF_ASC_NODE":161.333,"ARG_OF_PERICENTER":215.7113,"MEAN_ANOMALY":144.4069,"EPHEMERIS_TYPE":0,"NORAD_CAT_ID":68502,"ELEMENT_SET_NO":999,"REV_AT_EPOCH":1700,"BSTAR":0.000067942604,"MEAN_MOTION_DOT":0.00000629,"MEAN_MOTION_DDOT":0}]}
