{"epoch":1784799577,"count":18318,"objects":[{"id":"64584","name":"ICEYE-X53","type":"PAYLOAD","l1":"1 64584U 25135BJ  26203.95863139  .00003944  00000-0  31431-3 0  9995","l2":"2 64584  97.7348 320.5810 0002282 163.4274 196.7025 15.00925377 59448"},{"id":"66300","name":"ICEYE-X65","type":"PAYLOAD","l1":"1 66300U 25248H   26203.59308621  .00002819  00000-0  19646-3 0  9992","l2":"2 66300  45.4055 307.9954 0006170 236.0483 123.9813 15.07962524 40863"},{"id":"66301","name":"ICEYE-X66","type":"PAYLOAD","l1":"1 66301U 25248J   26203.31987199  .00003104  00000-0  20766-3 0  9999","l2":"2 66301  45.4022 308.4383 0005771 230.7144 129.3227 15.09212947 40814"},{"id":"66302","name":"ICEYE-X67","type":"PAYLOAD","l1":"1 66302U 25248K   26203.34464471  .00003086  00000-0  20665-3 0  9993","l2":"2 66302  45.4058 307.8900 0007288 231.8869 128.1356 15.09193272 40834"},{"id":"66751","name":"ICEYE-X58","type":"PAYLOAD","l1":"1 66751U 25276CP  26203.66566938  .00002190  00000-0  11311-3 0  9991","l2":"2 66751  97.4190 276.3905 0002888 183.0219 177.0997 15.17335291 35790"},{"id":"66752","name":"ICEYE-X59","type":"PAYLOAD","l1":"1 66752U 25276CQ  26203.14659149  .00004076  00000-0  32546-3 0  9990","l2":"2 66752  97.4403 272.9508 0001418 128.7925 231.3427 15.00795767 35519"},{"id":"66753","name":"ICEYE-X60","type":"PAYLOAD","l1":"1 66753U 25276CR  26202.42565852  .00004036  00000-0  24564-3 0  9995","l2":"2 66753  97.4208 274.0787 0002126 166.7579 193.3708 15.10963354 35530"},{"id":"66754","name":"ICEYE-X61","type":"PAYLOAD","l1":"1 66754U 25276CS  26203.15032130  .00002356  00000-0  11702-3 0  9998","l2":"2 66754  97.4186 275.9885 0002756 186.6183 173.5015 15.18637165 35724"},{"id":"66755","name":"ICEYE-X62","type":"PAYLOAD","l1":"1 66755U 25276CT  26203.91143933  .00005564  00000-0  34423-3 0  9996","l2":"2 66755  97.4178 275.0006 0001385 195.1986 164.9202 15.10205007 35725"},{"id":"67372","name":"ICEYE-X63","type":"PAYLOAD","l1":"1 67372U 26004K   26203.71403206  .00000708  00000-0  82401-4 0  9997","l2":"2 67372  97.8019 201.8013 0004916  32.2134 327.9382 14.88358842 28589"},{"id":"67373","name":"ICEYE-X64","type":"PAYLOAD","l1":"1 67373U 26004L   26203.69731545  .00000898  00000-0  10379-3 0  9999","l2":"2 67373  97.8032 201.7010 0006733  33.5498 326.6144 14.87999271 28574"},{"id":"68494","name":"ICEYE-X71","type":"PAYLOAD","l1":"1 68494U 26067CG  26203.83335648  .00074818  00000-0  72469-2 0  9993","l2":"2 68494  97.7617 161.5235 0000744 313.2033 145.3512 14.92350821  5813"},{"id":"68496","name":"ICEYE-X73","type":"PAYLOAD","l1":"1 68496U 26067CJ  26203.83847202  .00002303  00000-0  23051-3 0  9993","l2":"2 68496  97.7627 161.6233 0002082 136.7426 223.3957 14.92374863 17046"},{"id":"68497","name":"ICEYE-X75","type":"PAYLOAD","l1":"1 68497U 26067CK  26203.84387788  .00001088  00000-0  11233-3 0  9991","l2":"2 68497  97.7610 161.5922 0002018 133.2738 226.8649 14.92186768 17041"},{"id":"68500","name":"ICEYE-X74","type":"PAYLOAD","l1":"1 68500U 26067CN  26203.87981345  .00002006  00000-0  20437-3 0  9995","l2":"2 68500  97.7637 161.5830 0000322 248.0076 112.1108 14.91818477 17044"},{"id":"68502","name":"ICEYE-X76","type":"PAYLOAD","l1":"1 68502U 26067CQ  26203.60764911  .00000629  00000-0  67943-4 0  9999","l2":"2 68502  97.7644 161.3330 0000546 215.7113 144.4069 14.91760465 17001"}]}